DELTA 2 R/B(1)          
1 20453U 90008B   26032.38371309  .00055569  00000+0  75382-3 0  9995
2 20453  35.6059  52.2058 0098132 281.1979  77.7738 15.50934864920483
COSMOS 2058             
1 20465U 90010A   26032.49386296  .00003160  00000+0  18735-3 0  9993
2 20465  82.4639  83.0865 0012017  97.7535 262.5060 15.10984645936774
SL-14 R/B               
1 20466U 90010B   26032.26537580  .00000537  00000+0  62059-4 0  9997
2 20466  82.5040 301.6016 0021241  61.9734 298.3626 14.83534178923088
SL-14 R/B               
1 20511U 90018B   26032.04548416  .00000438  00000+0  52023-4 0  9992
2 20511  82.5190 257.3486 0015589 208.3264 151.7105 14.82106469917158
HST                     
1 20580U 90037B   26032.00397088  .00007357  00000+0  24684-3 0  9990
2 20580  28.4676 290.1523 0001989  68.7566 291.3241 15.28884969767694
SL-16 R/B               
1 20625U 90046B   26032.36157328 -.00000171  00000+0 -63386-4 0  9992
2 20625  70.9994  14.2063 0014401 349.9741  10.1092 14.15005121843253
COSMOS 2084             
1 20663U 90055A   26032.45672396  .00002489  00000+0  18581-3 0  9999
2 20663  62.7904  99.1353 0022929 182.6903 177.4078 15.05411429930862
SL-6 R/B(2)             
1 20666U 90055D   26032.32390936  .00002295  00000+0  18192-3 0  9998
2 20666  62.7842  17.4979 0019428 336.2453  23.7747 15.03386479932727
SL-8 R/B                
1 20775U 90078B   26032.13897382  .00014079  00000+0  41725-3 0  9991
2 20775  82.9042 284.1476 0367656 136.4334 226.6561 14.87833727803860
SL-8 R/B                
1 21088U 91006B   26032.52395832  .00000004  00000+0 -11293-4 0  9999
2 21088  82.9422 196.9356 0023413 134.4959 286.9645 13.77491992759097
OKEAN-3                 
1 21397U 91039A   26032.43542234  .00002834  00000+0  19992-3 0  9993
2 21397  82.5175  11.9551 0016178  93.9259 266.3818 15.04510897859583
COSMOS 2151             
1 21422U 91042A   26032.46142336  .00002002  00000+0  15887-3 0  9994
2 21422  82.4980 118.6201 0012710 175.6371 184.4966 14.99958569857760
