CCSDS_OMM_VERS = 2.0
CREATION_DATE  = 
ORIGINATOR     = 

OBJECT_NAME    = DELTA 2 R/B(1)
OBJECT_ID      = 1990-008B
CENTER_NAME    = EARTH
REF_FRAME      = TEME
TIME_SYSTEM    = UTC
MEAN_ELEMENT_THEORY = SGP/SGP4

EPOCH          = 2026-02-01T09:12:32.810976
MEAN_MOTION    = 15.50934864
ECCENTRICITY   = .0098132
INCLINATION    = 35.6059
RA_OF_ASC_NODE = 52.2058
ARG_OF_PERICENTER = 281.1979
MEAN_ANOMALY   = 77.7738

EPHEMERIS_TYPE = 0
CLASSIFICATION_TYPE = U
NORAD_CAT_ID   = 20453
ELEMENT_SET_NO = 999
REV_AT_EPOCH   = 92048
BSTAR          = .75382E-3
MEAN_MOTION_DOT = .55569E-3
MEAN_MOTION_DDOT = 0

CCSDS_OMM_VERS = 2.0
CREATION_DATE  = 
ORIGINATOR     = 

OBJECT_NAME    = COSMOS 2058
OBJECT_ID      = 1990-010A
CENTER_NAME    = EARTH
REF_FRAME      = TEME
TIME_SYSTEM    = UTC
MEAN_ELEMENT_THEORY = SGP/SGP4

EPOCH          = 2026-02-01T11:51:09.759744
MEAN_MOTION    = 15.10984645
ECCENTRICITY   = .0012017
INCLINATION    = 82.4639
RA_OF_ASC_NODE = 83.0865
ARG_OF_PERICENTER = 97.7535
MEAN_ANOMALY   = 262.5060

EPHEMERIS_TYPE = 0
CLASSIFICATION_TYPE = U
NORAD_CAT_ID   = 20465
ELEMENT_SET_NO = 999
REV_AT_EPOCH   = 93677
BSTAR          = .18735E-3
MEAN_MOTION_DOT = .316E-4
MEAN_MOTION_DDOT = 0

CCSDS_OMM_VERS = 2.0
CREATION_DATE  = 
ORIGINATOR     = 

OBJECT_NAME    = SL-14 R/B
OBJECT_ID      = 1990-010B
CENTER_NAME    = EARTH
REF_FRAME      = TEME
TIME_SYSTEM    = UTC
MEAN_ELEMENT_THEORY = SGP/SGP4

EPOCH          = 2026-02-01T06:22:08.469120
MEAN_MOTION    = 14.83534178
ECCENTRICITY   = .0021241
INCLINATION    = 82.5040
RA_OF_ASC_NODE = 301.6016
ARG_OF_PERICENTER = 61.9734
MEAN_ANOMALY   = 298.3626

EPHEMERIS_TYPE = 0
CLASSIFICATION_TYPE = U
NORAD_CAT_ID   = 20466
ELEMENT_SET_NO = 999
REV_AT_EPOCH   = 92308
BSTAR          = .62059E-4
MEAN_MOTION_DOT = .537E-5
MEAN_MOTION_DDOT = 0

CCSDS_OMM_VERS = 2.0
CREATION_DATE  = 
ORIGINATOR     = 

OBJECT_NAME    = SL-14 R/B
OBJECT_ID      = 1990-018B
CENTER_NAME    = EARTH
REF_FRAME      = TEME
TIME_SYSTEM    = UTC
MEAN_ELEMENT_THEORY = SGP/SGP4

EPOCH          = 2026-02-01T01:05:29.831424
MEAN_MOTION    = 14.82106469
ECCENTRICITY   = .00155894
INCLINATION    = 82.5190
RA_OF_ASC_NODE = 257.3486
ARG_OF_PERICENTER = 208.3264
MEAN_ANOMALY   = 151.7105

EPHEMERIS_TYPE = 0
CLASSIFICATION_TYPE = U
NORAD_CAT_ID   = 20511
ELEMENT_SET_NO = 999
REV_AT_EPOCH   = 91715
BSTAR          = .52023079E-4
MEAN_MOTION_DOT = .438E-5
MEAN_MOTION_DDOT = 0

CCSDS_OMM_VERS = 2.0
CREATION_DATE  = 
ORIGINATOR     = 

OBJECT_NAME    = HST
OBJECT_ID      = 1990-037B
CENTER_NAME    = EARTH
REF_FRAME      = TEME
TIME_SYSTEM    = UTC
MEAN_ELEMENT_THEORY = SGP/SGP4

EPOCH          = 2026-02-01T00:05:43.084032
MEAN_MOTION    = 15.28884969
ECCENTRICITY   = .00019891
INCLINATION    = 28.4676
RA_OF_ASC_NODE = 290.1523
ARG_OF_PERICENTER = 68.7566
MEAN_ANOMALY   = 291.3241

EPHEMERIS_TYPE = 0
CLASSIFICATION_TYPE = U
NORAD_CAT_ID   = 20580
ELEMENT_SET_NO = 999
REV_AT_EPOCH   = 76769
BSTAR          = .24683581E-3
MEAN_MOTION_DOT = .7357E-4
MEAN_MOTION_DDOT = 0

CCSDS_OMM_VERS = 2.0
CREATION_DATE  = 
ORIGINATOR     = 

OBJECT_NAME    = SL-16 R/B
OBJECT_ID      = 1990-046B
CENTER_NAME    = EARTH
REF_FRAME      = TEME
TIME_SYSTEM    = UTC
MEAN_ELEMENT_THEORY = SGP/SGP4

EPOCH          = 2026-02-01T08:40:39.931392
MEAN_MOTION    = 14.15005121
ECCENTRICITY   = .0014401
INCLINATION    = 70.9994
RA_OF_ASC_NODE = 14.2063
ARG_OF_PERICENTER = 349.9741
MEAN_ANOMALY   = 10.1092

EPHEMERIS_TYPE = 0
CLASSIFICATION_TYPE = U
NORAD_CAT_ID   = 20625
ELEMENT_SET_NO = 999
REV_AT_EPOCH   = 84325
BSTAR          = -.63386E-4
MEAN_MOTION_DOT = -.171E-5
MEAN_MOTION_DDOT = 0

CCSDS_OMM_VERS = 2.0
CREATION_DATE  = 
ORIGINATOR     = 

OBJECT_NAME    = COSMOS 2084
OBJECT_ID      = 1990-055A
CENTER_NAME    = EARTH
REF_FRAME      = TEME
TIME_SYSTEM    = UTC
MEAN_ELEMENT_THEORY = SGP/SGP4

EPOCH          = 2026-02-01T10:57:40.950144
MEAN_MOTION    = 15.05411429
ECCENTRICITY   = .0022929
INCLINATION    = 62.7904
RA_OF_ASC_NODE = 99.1353
ARG_OF_PERICENTER = 182.6903
MEAN_ANOMALY   = 177.4078

EPHEMERIS_TYPE = 0
CLASSIFICATION_TYPE = U
NORAD_CAT_ID   = 20663
ELEMENT_SET_NO = 999
REV_AT_EPOCH   = 93086
BSTAR          = .18581E-3
MEAN_MOTION_DOT = .2489E-4
MEAN_MOTION_DDOT = 0

CCSDS_OMM_VERS = 2.0
CREATION_DATE  = 
ORIGINATOR     = 

OBJECT_NAME    = SL-6 R/B(2)
OBJECT_ID      = 1990-055D
CENTER_NAME    = EARTH
REF_FRAME      = TEME
TIME_SYSTEM    = UTC
MEAN_ELEMENT_THEORY = SGP/SGP4

EPOCH          = 2026-02-01T07:46:25.768704
MEAN_MOTION    = 15.03386479
ECCENTRICITY   = .0019428
INCLINATION    = 62.7842
RA_OF_ASC_NODE = 17.4979
ARG_OF_PERICENTER = 336.2453
MEAN_ANOMALY   = 23.7747

EPHEMERIS_TYPE = 0
CLASSIFICATION_TYPE = U
NORAD_CAT_ID   = 20666
ELEMENT_SET_NO = 999
REV_AT_EPOCH   = 93272
BSTAR          = .18192E-3
MEAN_MOTION_DOT = .2295E-4
MEAN_MOTION_DDOT = 0

CCSDS_OMM_VERS = 2.0
CREATION_DATE  = 
ORIGINATOR     = 

OBJECT_NAME    = SL-8 R/B
OBJECT_ID      = 1990-078B
CENTER_NAME    = EARTH
REF_FRAME      = TEME
TIME_SYSTEM    = UTC
MEAN_ELEMENT_THEORY = SGP/SGP4

EPOCH          = 2026-02-01T03:20:07.338048
MEAN_MOTION    = 14.87833727
ECCENTRICITY   = .0367656
INCLINATION    = 82.9042
RA_OF_ASC_NODE = 284.1476
ARG_OF_PERICENTER = 136.4334
MEAN_ANOMALY   = 226.6561

EPHEMERIS_TYPE = 0
CLASSIFICATION_TYPE = U
NORAD_CAT_ID   = 20775
ELEMENT_SET_NO = 999
REV_AT_EPOCH   = 80386
BSTAR          = .41724609E-3
MEAN_MOTION_DOT = .14079E-3
MEAN_MOTION_DDOT = 0

CCSDS_OMM_VERS = 2.0
CREATION_DATE  = 
ORIGINATOR     = 

OBJECT_NAME    = SL-8 R/B
OBJECT_ID      = 1991-006B
CENTER_NAME    = EARTH
REF_FRAME      = TEME
TIME_SYSTEM    = UTC
MEAN_ELEMENT_THEORY = SGP/SGP4

EPOCH          = 2026-02-01T12:34:29.998848
MEAN_MOTION    = 13.77491992
ECCENTRICITY   = .0023413
INCLINATION    = 82.9422
RA_OF_ASC_NODE = 196.9356
ARG_OF_PERICENTER = 134.4959
MEAN_ANOMALY   = 286.9645

EPHEMERIS_TYPE = 0
CLASSIFICATION_TYPE = U
NORAD_CAT_ID   = 21088
ELEMENT_SET_NO = 999
REV_AT_EPOCH   = 75909
BSTAR          = -.11293E-4
MEAN_MOTION_DOT = .4E-7
MEAN_MOTION_DDOT = 0

CCSDS_OMM_VERS = 2.0
CREATION_DATE  = 
ORIGINATOR     = 

OBJECT_NAME    = OKEAN-3
OBJECT_ID      = 1991-039A
CENTER_NAME    = EARTH
REF_FRAME      = TEME
TIME_SYSTEM    = UTC
MEAN_ELEMENT_THEORY = SGP/SGP4

EPOCH          = 2026-02-01T10:27:00.490176
MEAN_MOTION    = 15.04510897
ECCENTRICITY   = .0016178
INCLINATION    = 82.5175
RA_OF_ASC_NODE = 11.9551
ARG_OF_PERICENTER = 93.9259
MEAN_ANOMALY   = 266.3818

EPHEMERIS_TYPE = 0
CLASSIFICATION_TYPE = U
NORAD_CAT_ID   = 21397
ELEMENT_SET_NO = 999
REV_AT_EPOCH   = 85958
BSTAR          = .19992E-3
MEAN_MOTION_DOT = .2834E-4
MEAN_MOTION_DDOT = 0

CCSDS_OMM_VERS = 2.0
CREATION_DATE  = 
ORIGINATOR     = 

OBJECT_NAME    = COSMOS 2151
OBJECT_ID      = 1991-042A
CENTER_NAME    = EARTH
REF_FRAME      = TEME
TIME_SYSTEM    = UTC
MEAN_ELEMENT_THEORY = SGP/SGP4

EPOCH          = 2026-02-01T11:04:26.978304
MEAN_MOTION    = 14.99958569
ECCENTRICITY   = .001271
INCLINATION    = 82.4980
RA_OF_ASC_NODE = 118.6201
ARG_OF_PERICENTER = 175.6371
MEAN_ANOMALY   = 184.4966

EPHEMERIS_TYPE = 0
CLASSIFICATION_TYPE = U
NORAD_CAT_ID   = 21422
ELEMENT_SET_NO = 999
REV_AT_EPOCH   = 85776
BSTAR          = .15887E-3
MEAN_MOTION_DOT = .2002E-4
MEAN_MOTION_DDOT = 0

